{
  "type": "FeatureCollection",
  "features": [
    {
      "type": "Feature",
      "properties": {
        "norad_id": 38867,
        "name": "INTELSAT 23 (IS-23)",
        "group": "intelsat",
        "lat": 0.0015987657448793854,
        "lon": -149.7668411056745,
        "alt_km": 35786.761810120515,
        "timestamp": "2025-12-21T11:31:42.510168+00:00",
        "meta_object_name": "INTELSAT 23 (IS-23)",
        "meta_object_id": "2012-057A",
        "meta_epoch": "2025-12-21T02:40:24.630816",
        "meta_mean_motion": 1.00269429,
        "meta_eccentricity": 6.46e-05,
        "meta_inclination": 0.016,
        "meta_ra_of_asc_node": 63.0533,
        "meta_arg_of_pericenter": 236.9291,
        "meta_mean_anomaly": 137.0816,
        "meta_ephemeris_type": 0,
        "meta_classification_type": "U",
        "meta_norad_cat_id": 38867,
        "meta_element_set_no": 999,
        "meta_rev_at_epoch": 4816,
        "meta_bstar": 0,
        "meta_mean_motion_dot": -2.62e-06,
        "meta_mean_motion_ddot": 0,
        "tle_line1": "1 38867U 12057A   25355.11139619 -.00000262  00000+0  00000+0 0  9997",
        "tle_line2": "2 38867   0.0160  63.0533 0000646 236.9291 137.0816  1.00269429 48167"
      },
      "geometry": {
        "type": "Point",
        "coordinates": [
          -149.7668411056745,
          0.0015987657448793854
        ]
      }
    },
    {
      "type": "Feature",
      "properties": {
        "norad_id": 39360,
        "name": "FM-6",
        "group": "intelsat",
        "lat": 0.022417876862847182,
        "lon": 147.0548266442135,
        "alt_km": 35774.214608915616,
        "timestamp": "2025-12-21T11:31:42.510181+00:00",
        "meta_object_name": "FM-6",
        "meta_object_id": "2013-058A",
        "meta_epoch": "2025-12-20T21:14:21.005376",
        "meta_mean_motion": 1.00274969,
        "meta_eccentricity": 0.000291,
        "meta_inclination": 0.0116,
        "meta_ra_of_asc_node": 64.5773,
        "meta_arg_of_pericenter": 108.7447,
        "meta_mean_anomaly": 118.8224,
        "meta_ephemeris_type": 0,
        "meta_classification_type": "U",
        "meta_norad_cat_id": 39360,
        "meta_element_set_no": 999,
        "meta_rev_at_epoch": 4428,
        "meta_bstar": 0,
        "meta_mean_motion_dot": 6e-08,
        "meta_mean_motion_ddot": 0,
        "tle_line1": "1 39360U 13058A   25354.88496534  .00000006  00000+0  00000+0 0  9998",
        "tle_line2": "2 39360   0.0116  64.5773 0002910 108.7447 118.8224  1.00274969 44288"
      },
      "geometry": {
        "type": "Point",
        "coordinates": [
          147.0548266442135,
          0.022417876862847182
        ]
      }
    },
    {
      "type": "Feature",
      "properties": {
        "norad_id": 40271,
        "name": "INTELSAT 30 (IS-30)",
        "group": "intelsat",
        "lat": 0.017737130602129655,
        "lon": 168.18768379184695,
        "alt_km": 35784.51432395924,
        "timestamp": "2025-12-21T11:31:42.510194+00:00",
        "meta_object_name": "INTELSAT 30 (IS-30)",
        "meta_object_id": "2014-062A",
        "meta_epoch": "2025-12-21T02:28:25.779360",
        "meta_mean_motion": 1.00271873,
        "meta_eccentricity": 0.0001654,
        "meta_inclination": 0.0153,
        "meta_ra_of_asc_node": 22.7027,
        "meta_arg_of_pericenter": 68.3073,
        "meta_mean_anomaly": 300.9758,
        "meta_ephemeris_type": 0,
        "meta_classification_type": "U",
        "meta_norad_cat_id": 40271,
        "meta_element_set_no": 999,
        "meta_rev_at_epoch": 500,
        "meta_bstar": 0,
        "meta_mean_motion_dot": -1.28e-06,
        "meta_mean_motion_ddot": 0,
        "tle_line1": "1 40271U 14062A   25355.10307615 -.00000128  00000+0  00000+0 0  9990",
        "tle_line2": "2 40271   0.0153  22.7027 0001654  68.3073 300.9758  1.00271873  5004"
      },
      "geometry": {
        "type": "Point",
        "coordinates": [
          168.18768379184695,
          0.017737130602129655
        ]
      }
    },
    {
      "type": "Feature",
      "properties": {
        "norad_id": 40333,
        "name": "DIRECTV 14",
        "group": "intelsat",
        "lat": 0.018424347670171117,
        "lon": 163.99068995940792,
        "alt_km": 35786.06393484011,
        "timestamp": "2025-12-21T11:31:42.510205+00:00",
        "meta_object_name": "DIRECTV 14",
        "meta_object_id": "2014-078B",
        "meta_epoch": "2025-12-21T04:01:00.087168",
        "meta_mean_motion": 1.00268951,
        "meta_eccentricity": 2.67e-05,
        "meta_inclination": 0.025,
        "meta_ra_of_asc_node": 6.8273,
        "meta_arg_of_pericenter": 114.0046,
        "meta_mean_anomaly": 290.183,
        "meta_ephemeris_type": 0,
        "meta_classification_type": "U",
        "meta_norad_cat_id": 40333,
        "meta_element_set_no": 999,
        "meta_rev_at_epoch": 4025,
        "meta_bstar": 0,
        "meta_mean_motion_dot": 0,
        "meta_mean_motion_ddot": 0,
        "tle_line1": "1 40333U 14078B   25355.16736212  .00000000  00000+0  00000+0 0  9999",
        "tle_line2": "2 40333   0.0250   6.8273 0000267 114.0046 290.1830  1.00268951 40255"
      },
      "geometry": {
        "type": "Point",
        "coordinates": [
          163.99068995940792,
          0.018424347670171117
        ]
      }
    },
    {
      "type": "Feature",
      "properties": {
        "norad_id": 40663,
        "name": "DIRECTV 15",
        "group": "intelsat",
        "lat": 0.02744163424623056,
        "lon": 160.3380989331688,
        "alt_km": 35785.32836262888,
        "timestamp": "2025-12-21T11:31:42.510217+00:00",
        "meta_object_name": "DIRECTV 15",
        "meta_object_id": "2015-026A",
        "meta_epoch": "2025-12-21T04:16:38.932032",
        "meta_mean_motion": 1.00269805,
        "meta_eccentricity": 3.42e-05,
        "meta_inclination": 0.025,
        "meta_ra_of_asc_node": 19.43,
        "meta_arg_of_pericenter": 116.583,
        "meta_mean_anomaly": 275.2713,
        "meta_ephemeris_type": 0,
        "meta_classification_type": "U",
        "meta_norad_cat_id": 40663,
        "meta_element_set_no": 999,
        "meta_rev_at_epoch": 3867,
        "meta_bstar": 0,
        "meta_mean_motion_dot": 0,
        "meta_mean_motion_ddot": 0,
        "tle_line1": "1 40663U 15026A   25355.17822838  .00000000  00000+0  00000+0 0  9990",
        "tle_line2": "2 40663   0.0250  19.4300 0000342 116.5830 275.2713  1.00269805 38670"
      },
      "geometry": {
        "type": "Point",
        "coordinates": [
          160.3380989331688,
          0.02744163424623056
        ]
      }
    },
    {
      "type": "Feature",
      "properties": {
        "norad_id": 40664,
        "name": "SKY MEXICO-1",
        "group": "intelsat",
        "lat": -0.007833543552778531,
        "lon": -175.5682601117192,
        "alt_km": 35788.23200153676,
        "timestamp": "2025-12-21T11:31:42.510229+00:00",
        "meta_object_name": "SKY MEXICO-1",
        "meta_object_id": "2015-026B",
        "meta_epoch": "2025-12-21T02:33:02.837376",
        "meta_mean_motion": 1.00271688,
        "meta_eccentricity": 0.0002344,
        "meta_inclination": 0.0148,
        "meta_ra_of_asc_node": 348.6805,
        "meta_arg_of_pericenter": 298.0643,
        "meta_mean_anomaly": 122.688,
        "meta_ephemeris_type": 0,
        "meta_classification_type": "U",
        "meta_norad_cat_id": 40664,
        "meta_element_set_no": 999,
        "meta_rev_at_epoch": 3866,
        "meta_bstar": 0,
        "meta_mean_motion_dot": -2.11e-06,
        "meta_mean_motion_ddot": 0,
        "tle_line1": "1 40664U 15026B   25355.10628284 -.00000211  00000+0  00000+0 0  9998",
        "tle_line2": "2 40664   0.0148 348.6805 0002344 298.0643 122.6880  1.00271688 38667"
      },
      "geometry": {
        "type": "Point",
        "coordinates": [
          -175.5682601117192,
          -0.007833543552778531
        ]
      }
    },
    {
      "type": "Feature",
      "properties": {
        "norad_id": 40874,
        "name": "INTELSAT 34 (IS-34)",
        "group": "intelsat",
        "lat": -0.023714071338224646,
        "lon": -152.27398775593025,
        "alt_km": 35784.70658431937,
        "timestamp": "2025-12-21T11:31:42.510241+00:00",
        "meta_object_name": "INTELSAT 34 (IS-34)",
        "meta_object_id": "2015-039A",
        "meta_epoch": "2025-12-21T02:39:39.701952",
        "meta_mean_motion": 1.00271678,
        "meta_eccentricity": 6.09e-05,
        "meta_inclination": 0.0113,
        "meta_ra_of_asc_node": 322.3873,
        "meta_arg_of_pericenter": 190.138,
        "meta_mean_anomaly": 281.8278,
        "meta_ephemeris_type": 0,
        "meta_classification_type": "U",
        "meta_norad_cat_id": 40874,
        "meta_element_set_no": 999,
        "meta_rev_at_epoch": 3783,
        "meta_bstar": 0,
        "meta_mean_motion_dot": -2.62e-06,
        "meta_mean_motion_ddot": 0,
        "tle_line1": "1 40874U 15039A   25355.11087618 -.00000262  00000+0  00000+0 0  9992",
        "tle_line2": "2 40874   0.0113 322.3873 0000609 190.1380 281.8278  1.00271678 37834"
      },
      "geometry": {
        "type": "Point",
        "coordinates": [
          -152.27398775593025,
          -0.023714071338224646
        ]
      }
    }
  ]
}